0 IRIDIUM 33 DEB
1 35478U 97051PY  13281.43008341  .00006161  00000-0  23202-2 0  2434
2 35478 086.4743 162.0196 0076697 058.7560 302.1126 14.29696533230594
0 IRIDIUM 33 DEB
1 35478U 97051PY  13284.36956710  .00006343  00000-0  23867-2 0  2441
2 35478 086.4738 160.8288 0077059 049.6333 311.1742 14.29735189231019
0 IRIDIUM 33 DEB
1 35478U 97051PY  13285.90925536  .00006574  00000-0  24754-2 0  2457
2 35478 086.4743 160.1993 0075748 044.6657 316.1177 14.29758935231233
0 IRIDIUM 33 DEB
1 35478U 97051PY  13287.37892597  .00006785  00000-0  25544-2 0  2463
2 35478 086.4764 159.6067 0075507 042.0323 318.6900 14.29781373231442
0 IRIDIUM 33 DEB
1 35478U 97051PY  13290.38820383  .00007220  00000-0  27203-2 0  2472
2 35478 086.4813 158.3886 0073502 034.9520 325.7820 14.29829996231875
0 IRIDIUM 33 DEB
1 35478U 97051PY  13291.36791982  .00007614  00000-0  28633-2 0  2489
2 35478 086.4759 157.9850 0075349 029.0972 331.5162 14.29851041232014
0 IRIDIUM 33 DEB
1 35478U 97051PY  13293.32734824  .00008203  00000-0  30822-2 0  2498
2 35478 086.4730 157.1878 0075631 020.0106 340.5468 14.29891057232299
0 IRIDIUM 33 DEB
1 35478U 97051PY  13295.35668337  .00008385  00000-0  31474-2 0  2505
2 35478 086.4708 156.3566 0075942 013.1646 347.1842 14.29927205232582
